STARLINK-34684          
1 64862U 25152W   25356.55661118 -.00000940  00000+0 -60987-4 0  9993
2 64862  97.6008 209.5330 0001363  63.3750 296.7616 15.05638236 23817
STARLINK-34690          
1 64863U 25152X   25356.54829705  .00005479  00000+0  38352-3 0  9991
2 64863  97.6025 209.5371 0001835  79.3158 280.8275 15.05659613 23812
STARLINK-34628          
1 64864U 25152Y   25356.49291340  .00005161  00000+0  36156-3 0  9992
2 64864  97.6014 209.4486 0001698  78.6513 281.4905 15.05660549 23807
STARLINK-34544          
1 64865U 25152Z   25356.48460743  .00005274  00000+0  36938-3 0  9990
2 64865  97.6016 209.4582 0001599  76.5969 283.5436 15.05657165 23801
STARLINK-34647          
1 64904U 25157A   25356.25002315  .00021653  00000+0  55065-3 0  9992
2 64904  53.1588 348.7580 0001241  98.9413 122.7728 15.39570655  5844
STARLINK-34273          
1 64905U 25157B   25356.37231021  .00067589  00000+0  16848-2 0  9997
2 64905  53.1602 347.8225 0001471  70.9915 289.1249 15.39619890 24257
STARLINK-34713          
1 64906U 25157C   25356.26105831  .00055272  00000+0  13791-2 0  9995
2 64906  53.1607 348.5518 0001672  92.2508 267.8688 15.39679747 24172
STARLINK-34712          
1 64907U 25157D   25356.25177129  .00044105  00000+0  11045-2 0  9997
2 64907  53.1608 348.4910 0001018  95.3460 264.7661 15.39666972 24223
STARLINK-34702          
1 64908U 25157E   25356.35837870  .00036224  00000+0  91022-3 0  9992
2 64908  53.1602 347.7289 0001015  68.8011 291.3103 15.39655667 24241
STARLINK-34687          
1 64909U 25157F   25356.28417854  .00038878  00000+0  97591-3 0  9995
2 64909  53.1587 347.9783 0001114 102.2073 257.9057 15.39653256 24187
STARLINK-34642          
1 64910U 25157G   25356.14980158  .00052986  00000+0  13237-2 0  9994
2 64910  53.1594 349.2793 0001184 108.3917 251.7217 15.39660360 24201
STARLINK-34718          
1 64911U 25157H   25356.40016483  .00075642  00000+0  18749-2 0  9992
2 64911  53.1586 347.9959 0002716 108.3414 251.7887 15.39737828 24247
STARLINK-34711          
1 64912U 25157J   25356.26569993  .00074682  00000+0  18574-2 0  9995
2 64912  53.1593 348.5795 0001196  75.5457 284.5680 15.39642979 24229
STARLINK-34659          
1 64913U 25157K   25356.25641318  .00051294  00000+0  12824-2 0  9993
2 64913  53.1608 348.5189 0001425  91.6179 268.4989 15.39650387 24178
STARLINK-34571          
1 64914U 25157L   25356.24712641  .00041240  00000+0  10343-2 0  9995
2 64914  53.1621 348.4605 0001109  76.4670 283.6458 15.39653049 24170
STARLINK-34636          
1 64915U 25157M   25356.36766284  .00039572  00000+0  99265-3 0  9997
2 64915  53.1605 347.7883 0001326  94.1613 265.9544 15.39665810 24244
