[{"OBJECT_NAME":"STARLINK-34684","OBJECT_ID":"2025-152W","EPOCH":"2025-12-22T13:21:31.205952","MEAN_MOTION":15.05638236,"ECCENTRICITY":0.00013631,"INCLINATION":97.6008,"RA_OF_ASC_NODE":209.533,"ARG_OF_PERICENTER":63.375,"MEAN_ANOMALY":296.7616,"EPHEMERIS_TYPE":0,"CLASSIFICATION_TYPE":"U","NORAD_CAT_ID":64862,"ELEMENT_SET_NO":999,"REV_AT_EPOCH":2381,"BSTAR":-6.0986627e-5,"MEAN_MOTION_DOT":-9.4e-6,"MEAN_MOTION_DDOT":0},{"OBJECT_NAME":"STARLINK-34690","OBJECT_ID":"2025-152X","EPOCH":"2025-12-22T13:09:32.865120","MEAN_MOTION":15.05659613,"ECCENTRICITY":0.00018354,"INCLINATION":97.6025,"RA_OF_ASC_NODE":209.5371,"ARG_OF_PERICENTER":79.3158,"MEAN_ANOMALY":280.8275,"EPHEMERIS_TYPE":0,"CLASSIFICATION_TYPE":"U","NORAD_CAT_ID":64863,"ELEMENT_SET_NO":999,"REV_AT_EPOCH":2381,"BSTAR":0.00038351642,"MEAN_MOTION_DOT":5.479e-5,"MEAN_MOTION_DDOT":0},{"OBJECT_NAME":"STARLINK-34628","OBJECT_ID":"2025-152Y","EPOCH":"2025-12-22T11:49:47.717760","MEAN_MOTION":15.05660549,"ECCENTRICITY":0.00016989,"INCLINATION":97.6014,"RA_OF_ASC_NODE":209.4486,"ARG_OF_PERICENTER":78.6513,"MEAN_ANOMALY":281.4905,"EPHEMERIS_TYPE":0,"CLASSIFICATION_TYPE":"U","NORAD_CAT_ID":64864,"ELEMENT_SET_NO":999,"REV_AT_EPOCH":2380,"BSTAR":0.00036155613,"MEAN_MOTION_DOT":5.161e-5,"MEAN_MOTION_DDOT":0},{"OBJECT_NAME":"STARLINK-34544","OBJECT_ID":"2025-152Z","EPOCH":"2025-12-22T11:37:50.081952","MEAN_MOTION":15.05657165,"ECCENTRICITY":0.00015998,"INCLINATION":97.6016,"RA_OF_ASC_NODE":209.4582,"ARG_OF_PERICENTER":76.5969,"MEAN_ANOMALY":283.5436,"EPHEMERIS_TYPE":0,"CLASSIFICATION_TYPE":"U","NORAD_CAT_ID":64865,"ELEMENT_SET_NO":999,"REV_AT_EPOCH":2380,"BSTAR":0.00036938165,"MEAN_MOTION_DOT":5.274e-5,"MEAN_MOTION_DDOT":0},{"OBJECT_NAME":"STARLINK-34647","OBJECT_ID":"2025-157A","EPOCH":"2025-12-22T06:00:02.000160","MEAN_MOTION":15.39570655,"ECCENTRICITY":0.00012411,"INCLINATION":53.1588,"RA_OF_ASC_NODE":348.758,"ARG_OF_PERICENTER":98.9413,"MEAN_ANOMALY":122.7728,"EPHEMERIS_TYPE":0,"CLASSIFICATION_TYPE":"U","NORAD_CAT_ID":64904,"ELEMENT_SET_NO":999,"REV_AT_EPOCH":584,"BSTAR":0.00055064647,"MEAN_MOTION_DOT":0.00021653,"MEAN_MOTION_DDOT":0},{"OBJECT_NAME":"STARLINK-34273","OBJECT_ID":"2025-157B","EPOCH":"2025-12-22T08:56:07.602144","MEAN_MOTION":15.3961989,"ECCENTRICITY":0.00014718,"INCLINATION":53.1602,"RA_OF_ASC_NODE":347.8225,"ARG_OF_PERICENTER":70.9915,"MEAN_ANOMALY":289.1249,"EPHEMERIS_TYPE":0,"CLASSIFICATION_TYPE":"U","NORAD_CAT_ID":64905,"ELEMENT_SET_NO":999,"REV_AT_EPOCH":2425,"BSTAR":0.0016847701,"MEAN_MOTION_DOT":0.00067589,"MEAN_MOTION_DDOT":0},{"OBJECT_NAME":"STARLINK-34713","OBJECT_ID":"2025-157C","EPOCH":"2025-12-22T06:15:55.437984","MEAN_MOTION":15.39679747,"ECCENTRICITY":0.0001672,"INCLINATION":53.1607,"RA_OF_ASC_NODE":348.5518,"ARG_OF_PERICENTER":92.2508,"MEAN_ANOMALY":267.8688,"EPHEMERIS_TYPE":0,"CLASSIFICATION_TYPE":"U","NORAD_CAT_ID":64906,"ELEMENT_SET_NO":999,"REV_AT_EPOCH":2417,"BSTAR":0.0013790565,"MEAN_MOTION_DOT":0.00055272,"MEAN_MOTION_DDOT":0},{"OBJECT_NAME":"STARLINK-34712","OBJECT_ID":"2025-157D","EPOCH":"2025-12-22T06:02:33.039456","MEAN_MOTION":15.39666972,"ECCENTRICITY":0.00010181,"INCLINATION":53.1608,"RA_OF_ASC_NODE":348.491,"ARG_OF_PERICENTER":95.346,"MEAN_ANOMALY":264.7661,"EPHEMERIS_TYPE":0,"CLASSIFICATION_TYPE":"U","NORAD_CAT_ID":64907,"ELEMENT_SET_NO":999,"REV_AT_EPOCH":2422,"BSTAR":0.0011045298,"MEAN_MOTION_DOT":0.00044105,"MEAN_MOTION_DDOT":0},{"OBJECT_NAME":"STARLINK-34702","OBJECT_ID":"2025-157E","EPOCH":"2025-12-22T08:36:03.919680","MEAN_MOTION":15.39655667,"ECCENTRICITY":0.00010157,"INCLINATION":53.1602,"RA_OF_ASC_NODE":347.7289,"ARG_OF_PERICENTER":68.8011,"MEAN_ANOMALY":291.3103,"EPHEMERIS_TYPE":0,"CLASSIFICATION_TYPE":"U","NORAD_CAT_ID":64908,"ELEMENT_SET_NO":999,"REV_AT_EPOCH":2424,"BSTAR":0.00091021613,"MEAN_MOTION_DOT":0.00036224,"MEAN_MOTION_DDOT":0},{"OBJECT_NAME":"STARLINK-34687","OBJECT_ID":"2025-157F","EPOCH":"2025-12-22T06:49:13.025856","MEAN_MOTION":15.39653256,"ECCENTRICITY":0.00011149,"INCLINATION":53.1587,"RA_OF_ASC_NODE":347.9783,"ARG_OF_PERICENTER":102.2073,"MEAN_ANOMALY":257.9057,"EPHEMERIS_TYPE":0,"CLASSIFICATION_TYPE":"U","NORAD_CAT_ID":64909,"ELEMENT_SET_NO":999,"REV_AT_EPOCH":2418,"BSTAR":0.00097591281,"MEAN_MOTION_DOT":0.00038878,"MEAN_MOTION_DDOT":0},{"OBJECT_NAME":"STARLINK-34642","OBJECT_ID":"2025-157G","EPOCH":"2025-12-22T03:35:42.856512","MEAN_MOTION":15.3966036,"ECCENTRICITY":0.00011846,"INCLINATION":53.1594,"RA_OF_ASC_NODE":349.2793,"ARG_OF_PERICENTER":108.3917,"MEAN_ANOMALY":251.7217,"EPHEMERIS_TYPE":0,"CLASSIFICATION_TYPE":"U","NORAD_CAT_ID":64910,"ELEMENT_SET_NO":999,"REV_AT_EPOCH":2420,"BSTAR":0.001323693,"MEAN_MOTION_DOT":0.00052986,"MEAN_MOTION_DDOT":0},{"OBJECT_NAME":"STARLINK-34718","OBJECT_ID":"2025-157H","EPOCH":"2025-12-22T09:36:14.241312","MEAN_MOTION":15.39737828,"ECCENTRICITY":0.00027166,"INCLINATION":53.1586,"RA_OF_ASC_NODE":347.9959,"ARG_OF_PERICENTER":108.3414,"MEAN_ANOMALY":251.7887,"EPHEMERIS_TYPE":0,"CLASSIFICATION_TYPE":"U","NORAD_CAT_ID":64911,"ELEMENT_SET_NO":999,"REV_AT_EPOCH":2424,"BSTAR":0.0018749346,"MEAN_MOTION_DOT":0.00075642,"MEAN_MOTION_DDOT":0},{"OBJECT_NAME":"STARLINK-34711","OBJECT_ID":"2025-157J","EPOCH":"2025-12-22T06:22:36.473952","MEAN_MOTION":15.39642979,"ECCENTRICITY":0.0001196,"INCLINATION":53.1593,"RA_OF_ASC_NODE":348.5795,"ARG_OF_PERICENTER":75.5457,"MEAN_ANOMALY":284.568,"EPHEMERIS_TYPE":0,"CLASSIFICATION_TYPE":"U","NORAD_CAT_ID":64912,"ELEMENT_SET_NO":999,"REV_AT_EPOCH":2422,"BSTAR":0.0018573811,"MEAN_MOTION_DOT":0.00074682,"MEAN_MOTION_DDOT":0},{"OBJECT_NAME":"STARLINK-34659","OBJECT_ID":"2025-157K","EPOCH":"2025-12-22T06:09:14.098752","MEAN_MOTION":15.39650387,"ECCENTRICITY":0.00014258,"INCLINATION":53.1608,"RA_OF_ASC_NODE":348.5189,"ARG_OF_PERICENTER":91.6179,"MEAN_ANOMALY":268.4989,"EPHEMERIS_TYPE":0,"CLASSIFICATION_TYPE":"U","NORAD_CAT_ID":64913,"ELEMENT_SET_NO":999,"REV_AT_EPOCH":2417,"BSTAR":0.0012824449,"MEAN_MOTION_DOT":0.00051294,"MEAN_MOTION_DDOT":0},{"OBJECT_NAME":"STARLINK-34571","OBJECT_ID":"2025-157L","EPOCH":"2025-12-22T05:55:51.721824","MEAN_MOTION":15.39653049,"ECCENTRICITY":0.00011094,"INCLINATION":53.1621,"RA_OF_ASC_NODE":348.4605,"ARG_OF_PERICENTER":76.467,"MEAN_ANOMALY":283.6458,"EPHEMERIS_TYPE":0,"CLASSIFICATION_TYPE":"U","NORAD_CAT_ID":64914,"ELEMENT_SET_NO":999,"REV_AT_EPOCH":2417,"BSTAR":0.001034288,"MEAN_MOTION_DOT":0.0004124,"MEAN_MOTION_DDOT":0},{"OBJECT_NAME":"STARLINK-34636","OBJECT_ID":"2025-157M","EPOCH":"2025-12-22T08:49:26.069376","MEAN_MOTION":15.3966581,"ECCENTRICITY":0.00013266,"INCLINATION":53.1605,"RA_OF_ASC_NODE":347.7883,"ARG_OF_PERICENTER":94.1613,"MEAN_ANOMALY":265.9544,"EPHEMERIS_TYPE":0,"CLASSIFICATION_TYPE":"U","NORAD_CAT_ID":64915,"ELEMENT_SET_NO":999,"REV_AT_EPOCH":2424,"BSTAR":0.0009926471,"MEAN_MOTION_DOT":0.00039572,"MEAN_MOTION_DDOT":0}]
